     2.10           N: GPS NAV DATA                         RINEX VERSION / TYPE
teqc  2016Nov7      KASI/KOREA          20200816 01:03:01UTCPGM / RUN BY / DATE
    18                                                      LEAP SECONDS
Linux 2.4.20-8|Pentium IV|gcc|Linux|486/DX+                 COMMENT
    4.6566D-09  1.4901D-08 -5.9605D-08 -1.1921D-07          ION ALPHA
    7.7824D+04  4.9152D+04 -6.5536D+04 -2.6214D+05          ION BETA
   -1.862645149231D-09-1.776356839400D-15   233472     2119 DELTA-UTC: A0,A1,T,W
                                                            END OF HEADER
17 20  8 16  1 59 44.0 3.116787411273D-04 5.570655048359D-12 0.000000000000D+00
    9.000000000000D+00 9.618750000000D+01 3.961236429969D-09-2.810254079071D+00
    5.029141902924D-06 1.332690508571D-02 2.594664692879D-06 5.153741485596D+03
    7.184000000000D+03 1.005828380585D-07 5.763101580428D-01-5.215406417847D-08
    9.838014788462D-01 3.436250000000D+02-1.638889402413D+00-7.803896492184D-09
    2.382242087088D-10 1.000000000000D+00 2.119000000000D+03 0.000000000000D+00
    2.000000000000D+00 0.000000000000D+00-1.117587089539D-08 9.000000000000D+00
    1.800000000000D+01 4.000000000000D+00
 8 20  8 16  1 59 44.0-4.460616037250D-05-1.250555214938D-12 0.000000000000D+00
    1.000000000000D+00 9.459375000000D+01 4.266606292706D-09-2.576864960723D+00
    4.915520548821D-06 5.389481200837D-03 3.376975655556D-06 5.153708272934D+03
    7.184000000000D+03 1.862645149231D-09 5.024856429554D-01-5.587935447693D-09
    9.694463933107D-01 3.206875000000D+02-6.241210389750D-02-8.128910030303D-09
    2.221521106700D-10 1.000000000000D+00 2.119000000000D+03 0.000000000000D+00
    2.000000000000D+00 0.000000000000D+00 5.122274160385D-09 1.000000000000D+00
    9.780000000000D+02 4.000000000000D+00
 3 20  8 16  2  0  0.0-2.712341956794D-04-1.102762325900D-11 0.000000000000D+00
    4.200000000000D+01-8.196875000000D+01 4.129100565041D-09 2.976745239559D-01
   -4.418194293976D-06 3.174848388880D-03 1.113489270210D-05 5.153773538589D+03
    7.200000000000D+03-4.656612873077D-08 2.613735721864D+00 1.005828380585D-07
    9.667856891103D-01 1.720625000000D+02 8.278764811785D-01-7.759251775410D-09
    3.089414400796D-10 1.000000000000D+00 2.119000000000D+03 0.000000000000D+00
    2.000000000000D+00 0.000000000000D+00 1.862645149231D-09 4.200000000000D+01
    1.800000000000D+01 4.000000000000D+00
 6 20  8 16  1 59 44.0-3.159763291478D-04-4.206412995700D-12 0.000000000000D+00
    3.200000000000D+01-9.793750000000D+01 4.052311652189D-09 1.695672981666D+00
   -4.971399903297D-06 1.767789479345D-03 2.665445208550D-06 5.153597097397D+03
    7.184000000000D+03 7.823109626770D-08 1.565328879671D+00 3.166496753693D-08
    9.803708686561D-01 3.372812500000D+02-1.088759518061D+00-8.113552247732D-09
   -1.117903708034D-10 1.000000000000D+00 2.119000000000D+03 0.000000000000D+00
    2.000000000000D+00 0.000000000000D+00 4.190951585770D-09 3.200000000000D+01
    1.332000000000D+03 4.000000000000D+00
28 20  8 16  2  0  0.0 6.890944205225D-04-3.865352482535D-12 0.000000000000D+00
    4.400000000000D+01 1.042812500000D+02 3.779085985529D-09-1.956656395210D+00
    5.390495061874D-06 1.837948837783D-02 1.075305044651D-05 5.153672056198D+03
    7.200000000000D+03 1.583248376846D-07-4.353022639266D-01 4.041939973831D-07
    9.767323953619D-01 1.811562500000D+02-1.400815973562D+00-7.457453490014D-09
   -3.821587755898D-10 1.000000000000D+00 2.119000000000D+03 0.000000000000D+00
    2.000000000000D+00 0.000000000000D+00-1.117587089539D-08 4.400000000000D+01
    1.800000000000D+01 4.000000000000D+00
11 20  8 16  2  0  0.0-1.915530301630D-04 1.057287590811D-11 0.000000000000D+00
    2.400000000000D+01-1.143750000000D+01 5.865601468702D-09 8.856489842751D-01
   -9.145587682724D-07 1.603597751819D-02 4.526227712631D-07 5.153716310501D+03
    7.200000000000D+03-2.421438694000D-08 1.093558866591D+00-3.688037395477D-07
    9.130671660781D-01 3.444375000000D+02 2.025551471778D+00-9.223241327880D-09
    3.428714248282D-11 1.000000000000D+00 2.119000000000D+03 0.000000000000D+00
    2.000000000000D+00 0.000000000000D+00-1.210719347000D-08 2.400000000000D+01
    1.800000000000D+01 4.000000000000D+00
19 20  8 16  2  0  0.0-1.178984530270D-04 5.115907697473D-12 0.000000000000D+00
    7.500000000000D+01 8.046875000000D+01 4.041954077897D-09-2.043894357890D-01
    4.300847649574D-06 9.361891541630D-03 3.075227141380D-06 5.153694814682D+03
    7.200000000000D+03-2.793967723846D-07 6.218144253181D-01-5.587935447693D-09
    9.820351939819D-01 3.345937500000D+02 1.697062799192D+00-8.193198422458D-09
    2.425101015191D-10 1.000000000000D+00 2.119000000000D+03 0.000000000000D+00
    2.000000000000D+00 0.000000000000D+00-1.536682248116D-08 7.500000000000D+01
    3.660000000000D+02 4.000000000000D+00
30 20  8 16  2  0  0.0-2.830596640706D-04-7.389644451905D-12 0.000000000000D+00
    5.300000000000D+01-4.937500000000D+00 5.432011979388D-09 6.462462983180D-01
   -2.179294824600D-07 4.790915525518D-03 6.442889571190D-06 5.153599370956D+03
    7.200000000000D+03 3.352761268616D-08-1.543697454658D+00-1.117587089539D-08
    9.376513639601D-01 2.390937500000D+02-2.811655266396D+00-8.418922110470D-09
   -5.553802766749D-10 1.000000000000D+00 2.119000000000D+03 0.000000000000D+00
    2.000000000000D+00 0.000000000000D+00 3.725290298462D-09 5.300000000000D+01
    1.800000000000D+01 4.000000000000D+00
 1 20  8 16  2  0  0.0 3.398116677999D-05 1.932676241267D-12 0.000000000000D+00
    3.500000000000D+01-9.178125000000D+01 4.131957826915D-09 1.405648419150D+00
   -4.872679710388D-06 1.008717506193D-02 3.280118107796D-06 5.153704492569D+03
    7.200000000000D+03-1.545995473862D-07 1.573581289794D+00 8.009374141693D-08
    9.808320535806D-01 3.278750000000D+02 8.196095237979D-01-8.225342618536D-09
   -2.314382117591D-10 1.000000000000D+00 2.119000000000D+03 0.000000000000D+00
    2.000000000000D+00 0.000000000000D+00 5.122274160385D-09 3.500000000000D+01
    1.800000000000D+01 4.000000000000D+00
22 20  8 16  2  0  0.0-7.637511007488D-04 3.296918293927D-12 0.000000000000D+00
    9.800000000000D+01-9.393750000000D+01 4.837344351952D-09 2.606598816035D+00
   -5.098059773445D-06 6.826569093391D-03 1.048296689987D-05 5.153768175125D+03
    7.200000000000D+03 5.587935447693D-08 2.524444584381D+00 3.911554813385D-08
    9.318593669973D-01 1.607500000000D+02-1.102216940971D+00-8.002476192397D-09
    2.000083311498D-10 1.000000000000D+00 2.119000000000D+03 0.000000000000D+00
    2.000000000000D+00 0.000000000000D+00-1.816079020500D-08 9.800000000000D+01
    1.800000000000D+01 4.000000000000D+00
